#dP2024  8 29 18  0  0.00000000      96 __u+U IGS20 EXT  IAC
## 2329 410400.00000000   900.00000000 60551 0.7500000000000
+   54   G01G02G03G04G05G06G07G08G09G10G11G12G13G14G15G16G17
+        G18G19G20G21G22G23G24G25G26G27G28G29G30G31G32R01R02
+        R03R04R05R07R08R09R11R12R14R15R16R17R18R19R20R21R22
+        R24R25R26  0  0  0  0  0  0  0  0  0  0  0  0  0  0
+          0  0  0  0  0  0  0  0  0  0  0  0  0  0  0  0  0
++        11  8  9  9  9  8  7  8  6  9  9  9  9  8  7  7  8
++         8  9  8  8  9  8  9  7  8  8  6  7  8  7  8  8  7
++         8  7  7  8 10  8  9  8  9  9  8  8  6 10 10  7  8
++         8  9  9  0  0  0  0  0  0  0  0  0  0  0  0  0  0
++         0  0  0  0  0  0  0  0  0  0  0  0  0  0  0  0  0
%c M  cc GPS ccc cccc cccc cccc cccc ccccc ccccc ccccc ccccc
%c cc cc ccc ccc cccc cccc cccc cccc ccccc ccccc ccccc ccccc
%f  0.0000000  0.000000000  0.00000000000  0.000000000000000
%f  0.0000000  0.000000000  0.00000000000  0.000000000000000
%i    0    0    0    0      0      0      0      0         0
%i    0    0    0    0      0      0      0      0         0
/* IAC                                ULTRA-RAPID PREDICTION
/* S/V CLOCKS ARE ALIGNED TO GNSS TIME                      
/* G:C1WC2W R:C1PC2P E:C1XC5X C:C2IC6I J:C1CC2S             
/* PCV:IGS20_2317 OL/AL:FES2004  NONE     YN ORB:CoN CLK:CoN
*  2024 08 30 12 30  0.00000000
PG01 -11047.391334  12170.161364  20419.876448    209.465388
PG02  14736.710122  13215.059951 -17393.724521   -368.475556
PG03  12814.758437  22378.992735   6432.925581    519.594107
PG04   8078.083759  13317.289426  21510.947014    434.143798
PG05  -4005.362603 -24605.252893   8875.856123   -184.928098
PG06  21170.128221  -6120.377343  14968.410249     64.702359
PG07  25735.423588   6867.832326   3560.418528    -44.305502
PG08  -1264.651772  20798.553083 -16328.181127    334.757603
PG09  16429.256363   2479.953301  20641.791640    335.475207
PG10 -13317.440735   5988.569138 -21966.245620   -109.447773
PG11   7469.937534 -13625.645671  21563.098976   -728.508495
PG12  -9719.381439 -24478.698309   3330.494253   -534.295801
PG13  10963.651145 -21025.248223 -11941.506042    673.746329
PG14  15676.542333  -1889.678795 -21331.196754    484.208202
PG15  -1806.267150 -20974.788054 -16609.860906    198.497116
PG16  -1997.456184  23349.483395  11723.022582   -194.570098
PG17  21106.573853 -11729.299559 -10834.092011    641.134850
PG18 -25845.515437  -6272.275439   2138.067356   -650.072246
PG19  20246.837834 -16491.013177  -3540.701962    531.478360
PG20   2863.345666 -19703.028613  17717.479359    371.150186
PG21   9436.507437  14629.814969 -19929.873264    102.673074
PG22  11936.699623 -11058.537374 -20636.424570    -56.741402
PG23 -16918.773251  -7895.429523 -18949.149608    308.961972
PG24 -12400.159875 -14787.529530 -18853.382946   -486.758682
PG25 -16336.154102 -16592.849058  12674.658557    499.506844
PG26  -9394.006193  14663.903648  19800.011821     89.838186
PG27 -10988.560915  22618.755992  -8138.230572    -33.557854
PG28 -22539.432303   5935.944556  12727.491412   -392.412534
PG29 -13998.084672  -6712.965802  21523.252122   -580.994149
PG30  25652.415539  -1093.596467  -7161.524830   -330.634967
PG31 -13018.120742  11805.940879  19799.495562   -225.304827
PG32 -20142.306602  13604.272305 -10251.662571   -601.683394
PR01  -5050.413410  24549.451149   4766.643810     96.136295
PR02   3660.558538  16552.015529  19071.078843    -24.386235
PR03  11505.668188   -754.250030  22800.117793    106.610772
PR04  12773.368648 -17008.574557  14115.595379    252.328646
PR05   7433.345289 -24321.083168  -2146.872513    136.893492
PR07 -11607.483558   1292.472482 -22636.234260     89.860742
PR08 -12610.715499  17291.823267 -13795.642915     -6.402880
PR09 -16323.827161 -19314.658570  -2954.173774    206.302092
PR11 -11812.919934   2849.197525  22438.893461     13.249813
PR12   3601.766978  17273.548373  18445.545528     44.246001
PR14  18731.557854  10702.195088 -13611.792702     26.881262
PR15  10790.400830  -4326.342849 -22681.069524     76.342847
PR16  -3608.249571 -17068.893030 -18577.730447     28.688988
PR17  24098.101533   -932.598324  -8222.940271    117.651348
PR18  22779.977541  -8026.731042   8278.175413    159.579195
PR19  11951.885438 -10775.232908  19786.219792   -289.509521
PR20 -10918.027700  -8097.427216  21586.517614   -118.410292
PR21 -23942.364919    437.383390   8843.745583   -130.259492
PR22 -22349.011228   8038.889343  -9272.979811     58.504591
PR24  11892.476423   7811.760832 -21146.258455    -69.957075
PR25 -24288.931967     86.324435   7845.433831   -101.053649
PR26 -12723.298007  16205.523098 -15036.845105     14.270406
*  2024 08 30 12 45  0.00000000
PG01 -12027.660225   9910.504298  21094.427379    209.457187
PG02  12579.177790  13236.108519 -18932.051493   -368.468556
PG03  12876.902915  22991.510773   3611.318712    519.606879
PG04   6486.405746  15141.202756  20819.517544    434.150356
PG05  -3314.222931 -23618.739471  11428.034580   -184.929191
PG06  22699.011989  -5764.842553  12695.273695     64.679664
PG07  25209.878959   7036.661867   6296.455529    -44.300858
PG08  -2463.071037  22096.829353 -14311.898090    334.769983
PG09  15051.389272   4470.950286  21337.293854    335.489485
PG10 -14291.877805   3633.096926 -21899.447128   -109.458314
PG11   9843.455774 -13137.607304  20896.181078   -728.512893
PG12  -9559.985569 -24793.940028    487.041441   -534.298386
PG13  11964.956382 -21713.862049  -9414.792952    673.748255
PG14  16503.597945    387.727909 -20801.921892    484.215974
PG15   -787.563007 -22377.486469 -14670.583077    198.501078
PG16  -2689.742925  21954.138541  14031.993624   -194.560875
PG17  20316.166178 -10522.713282 -13213.995664    641.125497
PG18 -25419.125585  -6406.046791   4970.591649   -650.074659
PG19  20054.087376 -15908.224174  -6357.674597    531.482894
PG20   4107.717882 -18009.560507  19204.234191    371.149833
PG21   7042.149557  14578.505248 -20822.223323    102.672469
PG22  12719.120484  -8705.283286 -21247.760524    -56.744983
PG23 -17665.646652  -9826.798846 -17314.530449    308.969652
PG24 -10257.658908 -14830.632112 -20059.289721   -486.758921
PG25 -16661.375650 -17928.592448  10293.793172    499.506953
PG26 -10578.351133  12615.595933  20624.697885     89.830924
PG27 -11656.017486  23053.719816  -5401.115202    -33.558153
PG28 -23830.438387   5590.308396  10304.007500   -392.425502
PG29 -12352.453049  -8578.319793  21853.628952   -580.992053
PG30  26288.414406   -710.815417  -4477.226478   -330.628691
PG31 -15200.947737  11353.545970  18514.947414   -225.304467
PG32 -19514.488307  12388.884093 -12686.993818   -601.680515
PR01  -5009.200356  24966.706133   1585.774050     96.137367
PR02   3103.826278  18709.001465  17060.429150    -24.386359
PR03  10681.833987   1946.782742  23123.472523    106.611443
PR04  12085.151622 -15245.677378  16531.241203    252.330226
PR05   7278.642026 -24439.124722   1078.352677    136.894026
PR07 -10779.405651  -1412.017338 -23038.852755     89.861438
PR08 -11960.031099  15539.863116 -16237.427136     -6.402900
PR09 -15982.217716 -18861.588154  -6080.871719    206.304013
PR11 -13728.031393    935.048671  21488.070396     13.248852
PR12   2009.284320  15507.753151  20178.934756     44.246411
PR14  19859.803949  11717.741471 -10914.028538     26.881324
PR15  12719.185146  -2352.452617 -21962.254937     76.342411
PR16  -1996.081652 -15284.429915 -20296.938260     28.689136
PR17  22890.926339   -826.093025 -11160.522237    117.653944
PR18  23546.689780  -8398.915930   5180.897951    159.580904
PR19  14217.426089 -11329.469800  17886.025155   -289.510793
PR20  -8222.059419  -8526.893185  22595.487840   -118.410807
PR21 -22662.408217    339.669957  11742.140609   -130.262206
PR22 -23266.360148   8359.662845  -6248.484874     58.497153
PR24   9270.420226   8372.372658 -22218.019716    -69.958475
PR25 -23136.024585      3.824341  10780.692215   -101.053776
PR26 -12048.461210  14319.095287 -17328.590554     14.276185
EOF
